NORAD_CAT_ID,OBJECT_NAME,OBJECT_TYPE,EPOCH,MEAN_MOTION,ECCENTRICITY,INCLINATION,RA_OF_ASC_NODE,ARG_OF_PERICENTER,MEAN_ANOMALY,BSTAR,MEAN_MOTION_DOT,MEAN_MOTION_DDOT,TLE_LINE0,TLE_LINE1,TLE_LINE2,SEMIMAJOR_AXIS,PERIOD,APOGEE,PERIGEE,DECAYED
53978.0,STARLINK-5148,PAYLOAD,2024-04-20 04:35:40,15.08874416,0.0001291,53.2172,69.8164,90.7101,269.4039,0.00096904,0.00015182,0.0,0 STARLINK-5148,1 53978U 22125Q   24111.19144273  .00015182  00000-0  96904-3 0  9992,2 53978  53.2172  69.8164 0001291  90.7101 269.4039 15.08874416 85526,6917.775,95.435,540.533,538.747,0.0
53978.0,STARLINK-5148,PAYLOAD,2024-04-20 06:11:03,15.08878179,0.0001313,53.2175,69.5187,98.5552,261.5589,0.00098423,0.00015427,0.0,0 STARLINK-5148,1 53978U 22125Q   24111.25768004  .00015427  00000-0  98423-3 0  9993,2 53978  53.2175  69.5187 0001313  98.5552 261.5589 15.08878179 85468,6917.764,95.435,540.537,538.72,0.0
53978.0,STARLINK-5148,PAYLOAD,2024-04-20 20:29:33,15.08822572,0.0001612,53.2178,66.843,102.2109,257.9064,-0.00035354,-5.908e-05,0.0,0 STARLINK-5148,1 53978U 22125Q   24111.85385870 -.00005908  00000-0 -35354-3 0  9994,2 53978  53.2178  66.8430 0001612 102.2109 257.9064 15.08822572 85626,6917.934,95.439,540.914,538.683,0.0
53978.0,STARLINK-5148,PAYLOAD,2024-04-21 06:01:52,15.08820247,0.0001594,53.217,65.0604,88.8076,271.3099,-0.00022794,-3.912e-05,0.0,0 STARLINK-5148,1 53978U 22125Q   24112.25130351 -.00003912  00000-0 -22794-3 0  9998,2 53978  53.2170  65.0604 0001594  88.8076 271.3099 15.08820247 85617,6917.941,95.439,540.908,538.703,0.0
53978.0,STARLINK-5148,PAYLOAD,2024-04-22 04:17:16,15.08881749,0.0001935,53.2174,60.9004,76.8296,283.2912,0.0022217,0.00035289,0.0,0 STARLINK-5148,1 53978U 22125Q   24113.17866178  .00035289  00000-0  22217-2 0  9992,2 53978  53.2174  60.9004 0001935  76.8296 283.2912 15.08881749 85822,6917.753,95.435,540.956,538.279,0.0
53978.0,STARLINK-5148,PAYLOAD,2024-04-22 05:52:39,15.08884746,0.0001721,53.217,60.5985,94.4818,265.6371,0.0021527,0.00034181,0.0,0 STARLINK-5148,1 53978U 22125Q   24113.24489779  .00034181  00000-0  21527-2 0  9991,2 53978  53.2170  60.5985 0001721  94.4818 265.6371 15.08884746 85767,6917.744,95.435,540.799,538.418,0.0
53978.0,STARLINK-5148,PAYLOAD,2024-04-23 02:32:40,15.0885899,0.0001605,53.2178,56.7377,97.7084,262.409,0.0018151,0.00028733,0.0,0 STARLINK-5148,1 53978U 22125Q   24114.10602081  .00028733  00000-0  18151-2 0  9995,2 53978  53.2178  56.7377 0001605  97.7084 262.4090 15.08858990 85966,6917.822,95.436,540.798,538.577,0.0
53978.0,STARLINK-5148,PAYLOAD,2024-04-23 05:43:26,15.08861372,0.0001607,53.217,56.1417,106.9682,253.1486,0.0018482,0.00029266,0.0,0 STARLINK-5148,1 53978U 22125Q   24114.23849908  .00029266  00000-0  18482-2 0  9999,2 53978  53.2170  56.1417 0001607 106.9682 253.1486 15.08861372 85915,6917.815,95.436,540.792,538.568,0.0
53978.0,STARLINK-5148,PAYLOAD,2024-04-23 20:01:54,15.08827014,0.0002259,53.2196,53.4595,142.587,217.5279,0.0018021,0.00028499,0.0,0 STARLINK-5148,1 53978U 22125Q   24114.83466196  .00028499  00000-0  18021-2 0  9995,2 53978  53.2196  53.4595 0002259 142.5870 217.5279 15.08827014 86076,6917.92,95.438,541.348,538.222,0.0
53978.0,STARLINK-5148,PAYLOAD,2024-04-24 02:23:26,15.08863699,0.000197,53.2179,52.2776,127.2783,232.8389,0.0017761,0.0002811,0.0,0 STARLINK-5148,1 53978U 22125Q   24115.09961755  .00028110  00000-0  17761-2 0  9995,2 53978  53.2179  52.2776 0001970 127.2783 232.8389 15.08863699 86113,6917.808,95.436,541.036,538.31,0.0
53978.0,STARLINK-5148,PAYLOAD,2024-04-24 05:34:12,15.08881032,0.0001832,53.2178,51.6811,127.5159,232.5999,0.0023497,0.00037348,0.0,0 STARLINK-5148,1 53978U 22125Q   24115.23209374  .00037348  00000-0  23497-2 0  9999,2 53978  53.2178  51.6811 0001832 127.5159 232.5999 15.08881032 86139,6917.755,95.435,540.887,538.353,0.0
53978.0,STARLINK-5148,PAYLOAD,2024-04-25 02:14:14,15.08843459,0.0001573,53.2183,47.8142,110.6766,249.4395,0.00083759,0.00013069,0.0,0 STARLINK-5148,1 53978U 22125Q   24116.09322251  .00013069  00000-0  83759-3 0  9996,2 53978  53.2183  47.8142 0001573 110.6766 249.4395 15.08843459 86260,6917.87,95.437,540.823,538.647,0.0
53978.0,STARLINK-5148,PAYLOAD,2024-04-25 22:54:15,15.08843982,0.0001737,53.2192,43.9519,117.0754,243.0416,0.00056149,8.66e-05,0.0,0 STARLINK-5148,1 53978U 22125Q   24116.95434502  .00008660  00000-0  56149-3 0  9998,2 53978  53.2192  43.9519 0001737 117.0754 243.0416 15.08843982 86327,6917.868,95.437,540.935,538.532,0.0
53978.0,STARLINK-5148,PAYLOAD,2024-04-26 02:05:01,15.0884947,0.0001672,53.2183,43.3542,120.6877,239.428,0.00084653,0.00013214,0.0,0 STARLINK-5148,1 53978U 22125Q   24117.08682153  .00013214  00000-0  84653-3 0  9992,2 53978  53.2183  43.3542 0001672 120.6877 239.4280 15.08849470 86417,6917.851,95.437,540.873,538.56,0.0
53978.0,STARLINK-5148,PAYLOAD,2024-04-27 03:31:11,15.0886033,0.0001439,53.219,38.6004,101.7225,258.3928,0.0006066,9.385e-05,0.0,0 STARLINK-5148,1 53978U 22125Q   24118.14665785  .00009385  00000-0  60660-3 0  9998,2 53978  53.2190  38.6004 0001439 101.7225 258.3928 15.08860330 86577,6917.818,95.436,540.679,538.688,0.0
53978.0,STARLINK-5148,PAYLOAD,2024-04-27 11:28:07,15.08846316,0.0002113,53.2186,37.1137,86.1542,273.9692,0.0002129,3.102e-05,0.0,0 STARLINK-5148,1 53978U 22125Q   24118.47786152  .00003102  00000-0  21290-3 0  9993,2 53978  53.2186  37.1137 0002113  86.1542 273.9692 15.08846316 86626,6917.861,95.437,541.188,538.264,0.0
53978.0,STARLINK-5148,PAYLOAD,2024-04-27 22:35:49,15.08819674,0.0001657,53.2186,35.0315,84.747,275.3712,-0.00037708,-6.281e-05,0.0,0 STARLINK-5148,1 53978U 22125Q   24118.94154922 -.00006281  00000-0 -37708-3 0  9993,2 53978  53.2186  35.0315 0001657  84.7470 275.3712 15.08819674 86623,6917.943,95.439,540.954,538.661,0.0
53978.0,STARLINK-5148,PAYLOAD,2024-04-28 03:21:59,15.08828315,0.0001596,53.2189,34.141,85.594,274.5234,-8.5275e-05,-1.644e-05,0.0,0 STARLINK-5148,1 53978U 22125Q   24119.14026993 -.00001644  00000-0 -85275-4 0  9993,2 53978  53.2189  34.1410 0001596  85.5940 274.5234 15.08828315 86728,6917.916,95.438,540.885,538.677,0.0
53978.0,STARLINK-5148,PAYLOAD,2024-04-28 11:18:55,15.08831686,0.0001591,53.2187,32.6548,83.6426,276.4747,0.00038645,5.866e-05,0.0,0 STARLINK-5148,1 53978U 22125Q   24119.47147319  .00005866  00000-0  38645-3 0  9991,2 53978  53.2187  32.6548 0001591  83.6426 276.4747 15.08831686 86707,6917.906,95.438,540.871,538.67,0.0
53978.0,STARLINK-5148,PAYLOAD,2024-04-28 22:26:37,15.08844681,0.00015,53.2186,30.5719,80.8668,279.2494,0.00068214,0.00010586,0.0,0 STARLINK-5148,1 53978U 22125Q   24119.93515218  .00010586  00000-0  68214-3 0  9999,2 53978  53.2186  30.5719 0001500  80.8668 279.2494 15.08844681 86776,6917.866,95.437,540.769,538.693,0.0
53978.0,STARLINK-5148,PAYLOAD,2024-04-29 03:12:46,15.08858003,0.0001392,53.2174,29.6797,77.2764,282.8384,0.0011924,0.00018749,0.0,0 STARLINK-5148,1 53978U 22125Q   24120.13387053  .00018749  00000-0  11924-2 0  9991,2 53978  53.2174  29.6797 0001392  77.2764 282.8384 15.08858003 86876,6917.825,95.436,540.653,538.727,0.0
53978.0,STARLINK-5148,PAYLOAD,2024-04-29 11:09:42,15.08851388,0.0001403,53.2175,28.1925,71.1989,288.9155,0.00076215,0.00011866,0.0,0 STARLINK-5148,1 53978U 22125Q   24120.46507054  .00011866  00000-0  76215-3 0  9990,2 53978  53.2175  28.1925 0001403  71.1989 288.9155 15.08851388 86927,6917.846,95.437,540.681,538.74,0.0
53978.0,STARLINK-5148,PAYLOAD,2024-04-29 22:17:24,15.08843906,0.0002113,53.2178,26.1085,81.913,278.2101,0.00068747,0.00010671,0.0,0 STARLINK-5148,1 53978U 22125Q   24120.92875280  .00010671  00000-0  68747-3 0  9994,2 53978  53.2178  26.1085 0002113  81.9130 278.2101 15.08843906 86921,6917.868,95.437,541.195,538.272,0.0
53978.0,STARLINK-5148,PAYLOAD,2024-04-29 23:52:47,15.08843898,0.0001621,53.2183,25.8096,83.3007,276.8169,0.00017932,2.567e-05,0.0,0 STARLINK-5148,1 53978U 22125Q   24120.99499079  .00002567  00000-0  17932-3 0  9994,2 53978  53.2183  25.8096 0001621  83.3007 276.8169 15.08843898 87005,6917.868,95.437,540.855,538.612,0.0
53978.0,STARLINK-5148,PAYLOAD,2024-04-30 11:00:29,15.08850005,0.000163,53.2178,23.7323,74.2196,285.8976,0.00037447,5.678e-05,0.0,0 STARLINK-5148,1 53978U 22125Q   24121.45867017  .00005678  00000-0  37447-3 0  9996,2 53978  53.2178  23.7323 0001630  74.2196 285.8976 15.08850005 87001,6917.85,95.437,540.842,538.587,0.0
53978.0,STARLINK-5148,PAYLOAD,2024-04-30 22:08:11,15.08849626,0.000176,53.218,21.6516,73.2197,286.8988,0.00040016,6.088e-05,0.0,0 STARLINK-5148,1 53978U 22125Q   24121.92235032  .00006088  00000-0  40016-3 0  9996,2 53978  53.2180  21.6516 0001760  73.2197 286.8988 15.08849626 87077,6917.851,95.437,540.934,538.498,0.0
53978.0,STARLINK-5148,PAYLOAD,2024-05-01 10:51:15,15.0885443,0.0001476,53.2177,19.2705,85.838,274.2781,0.00040323,6.138e-05,0.0,0 STARLINK-5148,1 53978U 22125Q   24122.45226477  .00006138  00000-0  40323-3 0  9995,2 53978  53.2177  19.2705 0001476  85.8380 274.2781 15.08854430 87221,6917.836,95.437,540.722,538.68,0.0
53978.0,STARLINK-5148,PAYLOAD,2024-05-02 02:45:06,15.08856367,0.000154,53.2189,16.2961,91.0479,269.0689,0.0002934,4.387e-05,0.0,0 STARLINK-5148,1 53978U 22125Q   24123.11465978  .00004387  00000-0  29340-3 0  9990,2 53978  53.2189  16.2961 0001540  91.0479 269.0689 15.08856367 87326,6917.83,95.437,540.761,538.63,0.0
53978.0,STARLINK-5148,PAYLOAD,2024-05-02 20:14:21,15.08842927,0.0001411,53.2182,13.0262,89.1435,270.9719,3.757e-05,3.1e-06,0.0,0 STARLINK-5148,1 53978U 22125Q   24123.84330351  .00000310  00000-0  37570-4 0  9993,2 53978  53.2182  13.0262 0001411  89.1435 270.9719 15.08842927 87439,6917.871,95.437,540.713,538.76,0.0
53978.0,STARLINK-5148,PAYLOAD,2024-05-03 08:57:26,15.08848167,0.0001498,53.2187,10.6471,88.2749,271.8414,0.00015058,2.11e-05,0.0,0 STARLINK-5148,1 53978U 22125Q   24124.37322072  .00002110  00000-0  15058-3 0  9999,2 53978  53.2187  10.6471 0001498  88.2749 271.8414 15.08848167 87447,6917.855,95.437,540.757,538.684,0.0
